ONEWEB-0102             
1 47258U 20100A   24213.45770206  .00000302  00000+0  80325-3 0  9997
2 47258  87.8950 127.2506 0001838  79.8638 280.2697 13.12441062174784
ONEWEB-0109             
1 47259U 20100B   24213.46580542 -.00000078  00000+0 -25256-3 0  9995
2 47259  87.8951 127.2140 0001860  79.9846 280.1492 13.12440557174619
ONEWEB-0110             
1 47260U 20100C   24213.49175094 -.00000555  00000+0 -15790-2 0  9993
2 47260  87.8947 127.2119 0001845  75.0626 285.0707 13.12443016174782
ONEWEB-0111             
1 47261U 20100D   24213.52258524  .00000456  00000+0  12325-2 0  9997
2 47261  87.8952 127.2041 0001895  77.4404 282.6937 13.12441805174623
ONEWEB-0114             
1 47262U 20100E   24213.47715728 -.00000367  00000+0 -10560-2 0  9998
2 47262  87.8946 127.2268 0001766  88.8524 271.2807 13.12441269174572
ONEWEB-0117             
1 47263U 20100F   24213.46905403 -.00000121  00000+0 -37136-3 0  9996
2 47263  87.8952 127.2055 0001967  75.6576 284.4771 13.12441333174587
ONEWEB-0118             
1 47264U 20100G   24213.50148510 -.00000046  00000+0 -16254-3 0  9994
2 47264  87.8951 127.2026 0002160  88.8160 271.3216 13.12446187174789
ONEWEB-0119             
1 47265U 20100H   24213.52907188  .00000348  00000+0  93234-3 0  9997
2 47265  87.8952 127.2359 0001917  76.5784 283.5558 13.12443342174767
